NAYIF-1 (EO-88)         
1 42017U 17008BX  20132.18365702  .00001340  00000-0  54222-4 0  9997
2 42017  97.3618 200.2869 0008013  94.0608 266.1546 15.26405189179868
MAX VALIER SAT          
1 42778U 17036P   20132.07924225  .00000785  00000-0  36696-4 0  9998
2 42778  97.3081 186.7429 0013246 147.1707 213.0355 15.22558603160045
RADFXSAT (FOX-1B)       
1 43017U 17073E   20132.31262388  .00000290  00000-0  27912-4 0  9990
2 43017  97.7243  45.9818 0257249 171.0567 189.5361 14.78901533133674
FOX-1D (AO-92)          
1 43137U 18004AC  20132.45477585  .00000821  00000-0  36788-4 0  9991
2 43137  97.4473 203.8635 0009248 175.3602 184.7723 15.24058746129408
DIWATA-2B               
1 43678U 18084H   20132.37785560  .00000337  00000-0  39250-4 0  9994
2 43678  97.8781 250.7946 0008718 305.9289  54.1096 14.91629316 83494
ES'HAIL 2               
1 43700U 18090A   20132.42688177  .00000132  00000-0  00000+0 0  9998
2 43700   0.0171 288.6425 0001388 139.2233 341.2420  1.00271935  5585
FOX-1CLIFF (AO-95)      
1 43770U 18099N   20132.16045668  .00000359  00000-0  38088-4 0  9990
2 43770  97.7074 204.1873 0013582 327.0570  32.9803 14.94969456 78349
ITASAT 1                
1 43786U 18099AE  20132.16586411  .00000132  00000-0  17212-4 0  9998
2 43786  97.7090 204.5854 0014123 320.0735  39.9446 14.95312052 78362
JY1SAT (JO-97)          
1 43803U 18099AX  20131.78328159 -.00000129  00000-0 -63951-5 0  9998
2 43803  97.7047 204.0371 0014138 321.3773  38.6436 14.95481466 78300
PSAT2 (NO-104)          
1 44354U 19036R   20132.54253430  .00006653  00000-0  94518-4 0  9994
2 44354  28.5330 262.9294 0365792 276.9600  78.9525 15.03056774 48252
BRICSAT2 (NO-103)       
1 44355U 19036S   20129.10309225  .00014950  00000-0  20948-3 0  9991
2 44355  28.5331 278.8704 0346540 251.0406 105.2329 15.07939313 47803
JAISAT-1                
1 44419U 19038F   20131.85180473  .00000673  00000-0  42038-4 0  9993
2 44419  97.5357  93.8975 0019899 259.8524 100.0462 15.12730706 46917
DUCHIFAT-3              
1 44854U 19089C   20132.52672812  .00000304  00000-0  30993-4 0  9998
2 44854  36.9670 316.5767 0006606 121.1752 238.9642 14.99045732 22754
RS-44 & BREEZE-KM R/B   
1 44909U 19096E   20132.14337138  .00000009  00000-0  00000+0 0  9997
2 44909  82.5234  20.1071 0216969 314.0974  44.2445 12.79706877 17414
ORBITAL FACTORY 2 (OF-2)
1 45113U 19071C   20132.52880840  .00001132  00000-0  46273-4 0  9998
2 45113  51.6434 181.9037 0012644 285.4346  74.5239 15.33226689 15468
HUSKYSAT-1              
1 45119U 19071J   20131.60021291  .00000855  00000-0  37562-4 0  9991
2 45119  51.6431 186.2041 0011903 278.0643  81.8988 15.33453912 15316
